1 51830U 22019G   22257.18039474  .00006949  00000-0  41192-3 0  9993
2 51830  97.5029 330.1947 0015456 307.4009  52.5813 15.11588703 30042
1 51830U 22019G   22257.51138103  .00007557  00000-0  44752-3 0  9990
2 51830  97.5028 330.5196 0015466 306.1510  53.8289 15.11594192 30090
1 51830U 22019G   22257.51138103  .00007557  00000-0  44752-3 0  9990
2 51830  97.5028 330.5196 0015466 306.1510  53.8289 15.11594192 30090
1 51830U 22019G   22257.84236621  .00007673  00000-0  45428-3 0  9990
2 51830  97.5026 330.8446 0015483 304.8635  55.1139 15.11599132 30145
1 51830U 22019G   22258.17335008  .00009796  00000-0  57865-3 0  9992
2 51830  97.5024 331.1693 0015494 303.5727  56.4023 15.11607401 30191
1 51830U 22019G   22258.43813623  .00010334  00000-0  61006-3 0  9997
2 51830  97.5024 331.4292 0015484 302.5823  57.3912 15.11612407 30238
1 51830U 22019G   22258.43813623  .00010334  00000-0  61006-3 0  9997
2 51830  97.5024 331.4292 0015484 302.5823  57.3912 15.11612407 30238
1 51830U 22019G   22259.31452164  .00007998  00000-0  47308-3 0  9995
2 51830  97.5017 332.2878 0015344 297.7161 148.3677 15.11622681 30362
1 51830U 22019G   22259.38926979  .00007468  00000-0  44199-3 0  9999
2 51830  97.5031 332.3628 0015526 299.6099 192.9756 15.11622114 30370
1 51830U 22019G   22259.49727592  .00008182  00000-0  48381-3 0  9992
2 51830  97.5023 332.4689 0015506 298.4783  61.4885 15.11624523 30395
1 51830U 22019G   22259.49727592  .00008182  00000-0  48381-3 0  9992
2 51830  97.5023 332.4689 0015506 298.4783  61.4885 15.11624523 30395
1 51830U 22019G   22259.76205891  .00008393  00000-0  49611-3 0  9996
2 51830  97.5023 332.7288 0015500 297.4635  62.5019 15.11629033 30439
1 51830U 22019G   22259.82825458  .00008059  00000-0  47653-3 0  9993
2 51830  97.5023 332.7937 0015503 297.2334  62.7316 15.11629419 30448
1 51830U 22019G   22260.15923232  .00006783  00000-0  40169-3 0  9997
2 51830  97.5023 333.1186 0015484 295.9762  63.9873 15.11632449 30490
1 51830U 22019G   22260.42401421  .00006426  00000-0  38073-3 0  9993
2 51830  97.5025 333.3785 0015473 295.0558  64.9065 15.11635208 30536
1 51830U 22019G   22260.49020945  .00006702  00000-0  39691-3 0  9992
2 51830  97.5025 333.4435 0015464 294.7927  65.1694 15.11636616 30541
1 51830U 22019G   22260.82118538  .00006674  00000-0  39523-3 0  9997
2 51830  97.5025 333.7684 0015449 293.5733  66.3875 15.11641233 30595
1 51830U 22019G   22260.82118538  .00006674  00000-0  39523-3 0  9997
2 51830  97.5025 333.7684 0015449 293.5733  66.3875 15.11641233 30595
1 51830U 22019G   22261.15216016  .00006839  00000-0  40483-3 0  9994
2 51830  97.5026 334.0932 0015441 292.3309  67.6285 15.11646062 30644
1 51830U 22019G   22261.48313374  .00007539  00000-0  44581-3 0  9996
2 51830  97.5027 334.4182 0015426 291.1175  68.8406 15.11652171 30698
1 51830U 22019G   22261.48313374  .00007539  00000-0  44581-3 0  9996
2 51830  97.5027 334.4182 0015426 291.1175  68.8406 15.11652171 30698
1 51830U 22019G   22261.81410650  .00007078  00000-0  41872-3 0  9996
2 51830  97.5028 334.7431 0015403 289.9348  70.0223 15.11656256 30747
1 51830U 22019G   22261.81410650  .00007078  00000-0  41872-3 0  9996
2 51830  97.5028 334.7431 0015403 289.9348  70.0223 15.11656256 30747
1 51830U 22019G   22262.14507815  .00007293  00000-0  43125-3 0  9995
2 51830  97.5028 335.0679 0015368 288.7291  71.2271 15.11661585 30791
1 51830U 22019G   22262.40985467  .00007175  00000-0  42431-3 0  9995
2 51830  97.5030 335.3278 0015340 287.7358  72.2198 15.11665356 30839
1 51830U 22019G   22262.54224284  .00006765  00000-0  40028-3 0  9997
2 51830  97.5030 335.4578 0015336 287.2817  72.6734 15.11666599 30855
1 51830U 22019G   22262.80701823  .00007205  00000-0  42601-3 0  9994
2 51830  97.5030 335.7177 0015316 286.2936  73.6610 15.11671366 30898
1 51830U 22019G   22262.87321200  .00007184  00000-0  42477-3 0  9995
2 51830  97.5031 335.7827 0015305 285.9943  73.9602 15.11672175 30908
1 51830U 22019G   22263.13798670  .00007038  00000-0  41618-3 0  9998
2 51830  97.5030 336.0426 0015285 285.0016  74.9522 15.11675946 30940
1 51830U 22019G   22263.46895437  .00006490  00000-0  38408-3 0  9997
2 51830  97.5032 336.3675 0015252 283.7862  76.1670 15.11679705 30999
1 51830U 22019G   22263.53514778  .00006437  00000-0  38096-3 0  9995
2 51830  97.5032 336.4325 0015249 283.5513  76.4019 15.11680574 31008
1 51830U 22019G   22263.86611417  .00006307  00000-0  37331-3 0  9996
2 51830  97.5032 336.7575 0015239 282.1973  77.7550 15.11684773 31056
1 51830U 22019G   22263.86611417  .00006307  00000-0  37331-3 0  9996
2 51830  97.5032 336.7575 0015239 282.1973  77.7550 15.11684773 31056
